MEAN_MOTION;ECCENTRICITY;INCLINATION;RA_OF_ASC_NODE;ARG_OF_PERICENTER;MEAN_ANOMALY;BSTAR;MEAN_MOTION_DOT;MEAN_MOTION_DDOT;TYPE
1.00271618;0.0002614;0.0186;220.6121;352.4118;82.6927;0;-1.64E-6;0;Intelsat
1.00272871;0.0002504;0.0196;223.745;350.4851;84.3209;0;-1.67E-6;0;Intelsat
1.0027112;0.0002385;0.021;226.321;347.7334;301.8188;0;-1.69E-6;0;Intelsat
1.00271743;0.0002578;0.0212;227.6877;346.3314;87.3414;0;-1.71E-6;0;Intelsat
1.00272055;0.0002508;0.0198;224.46;349.4461;270.9113;0;-1.72E-6;0;Intelsat
1.00281846;0.0002461;0.0227;232.3334;356.0558;358.0243;0;-1.75E-6;0;Intelsat
1.00272825;0.00025;0.0224;231.0772;342.5215;90.4643;0;-1.74E-6;0;Intelsat
1.00270829;0.0002442;0.0232;231.8964;344.1273;271.2152;0;-1.75E-6;0;Intelsat
1.00270414;0.000238;0.0216;228.7787;345.1127;67.1393;0;-1.75E-6;0;Intelsat
1.00270379;0.0002282;0.0189;222.9806;347.9319;46.9988;0;-1.76E-6;0;Intelsat
1.00270438;0.0002275;0.018;221.3632;348.6269;177.4754;0;-1.76E-6;0;Intelsat
1.00270459;0.0002235;0.0165;216.9889;350.729;78.9084;0;-1.76E-6;0;Intelsat
1.00270493;0.0002234;0.0157;215.461;352.144;182.6879;0;-1.76E-6;0;Intelsat
1.00271304;0.0002204;0.0156;214.6263;350.6737;314.5671;0;-1.76E-6;0;Intelsat
1.00272144;0.0002397;0.0175;223.351;341.755;113.0564;0;-1.74E-6;0;Intelsat
1.00274901;0.000233;0.0189;227.7347;340.4878;44.8265;0;-1.74E-6;0;Intelsat
1.00271441;0.0002483;0.019;228.7505;335.7044;90.6153;0;-1.73E-6;0;Intelsat
1.00272558;0.0002443;0.0205;232.4025;331.7141;93.757;0;-1.72E-6;0;Intelsat
1.0026948;0.0002837;0.0256;244.4366;352.9169;190.0913;0;-1.72E-6;0;Intelsat
1.00270963;0.0002332;0.021;233.8982;329.4211;353.6825;0;-1.72E-6;0;Intelsat
1.00271114;0.000237;0.0183;228.9335;332.4041;54.2587;0;-1.71E-6;0;Intelsat
1.0027109;0.0002366;0.0182;228.6766;332.423;76.4681;0;-1.7E-6;0;Intelsat
1.00271039;0.0002368;0.0173;227.2044;332.2432;207.6721;0;-1.7E-6;0;Intelsat
1.00271095;0.0002395;0.0162;223.9916;335.1201;81.2312;0;-1.7E-6;0;Intelsat
1.00271096;0.0002396;0.0162;223.8727;335.2128;107.1578;0;-1.7E-6;0;Intelsat
1.00271097;0.0002407;0.0154;222.303;336.6393;210.9362;0;-1.69E-6;0;Intelsat
1.00274749;0.000251;0.0158;223.7159;337.6488;56.9333;0;-1.7E-6;0;Intelsat
1.00273935;0.0002519;0.0154;223.4061;335.8598;213.4255;0;-1.69E-6;0;Intelsat
1.00273556;0.0002599;0.0171;227.2159;334.4664;67.0739;0;-1.68E-6;0;Intelsat
1.00273522;0.0002595;0.0166;226.4397;335.1684;213.8973;0;-1.67E-6;0;Intelsat
1.00272872;0.0002623;0.0202;235.1878;326.2023;2.3701;0;-1.67E-6;0;Intelsat
1.00271555;0.0002839;0.0216;238.2041;326.2389;87.09;0;-1.65E-6;0;Intelsat
1.00273762;0.0002687;0.0208;237.2682;327.4026;216.4471;0;-1.64E-6;0;Intelsat
1.00273762;0.0002687;0.0208;237.2682;327.4026;216.4471;0;-1.64E-6;0;Intelsat
1.00271385;0.0002632;0.0216;237.4238;328.9974;87.9381;0;-1.62E-6;0;Intelsat
1.00271353;0.0002632;0.0209;236.8643;329.3643;191.7672;0;-1.61E-6;0;Intelsat
1.00271195;0.0002662;0.0188;233.5039;334.1774;193.1381;0;-1.59E-6;0;Intelsat
1.00271143;0.0002652;0.0184;232.6059;334.0859;263.7363;0;-1.59E-6;0;Intelsat
1.00271084;0.0002674;0.0167;229.9251;338.2659;195.4145;0;-1.57E-6;0;Intelsat
1.00271135;0.0002636;0.0164;229.0361;338.4541;296.2607;0;-1.56E-6;0;Intelsat
1.00272862;0.0002796;0.0172;232.0842;335.5907;95.0428;0;-1.55E-6;0;Intelsat
1.00272862;0.0002796;0.0172;232.0842;335.5907;95.0428;0;-1.56E-6;0;Intelsat
1.00273712;0.0002736;0.0166;231.7416;336.1046;198.5739;0;-1.55E-6;0;Intelsat
1.00272577;0.0002839;0.0186;236.0907;333.7634;50.0756;0;-1.54E-6;0;Intelsat
1.00270997;0.0002697;0.019;236.9104;336.2618;221.9599;0;-1.53E-6;0;Intelsat
1.00273112;0.0002781;0.0194;239.6889;332.6539;199.6762;0;-1.53E-6;0;Intelsat
1.00273112;0.0002781;0.0194;239.6889;332.6539;199.6762;0;-1.53E-6;0;Intelsat
1.00271928;0.0002879;0.0215;243.4721;330.3449;97.3645;0;-1.53E-6;0;Intelsat
1.00270715;0.0002714;0.0213;243.809;333.046;97.1235;0;-1.54E-6;0;Intelsat
1.00270463;0.0002678;0.0189;241.3039;335.84;99.6288;0;-1.56E-6;0;Intelsat
1.0027039;0.0002654;0.0179;240.1788;336.3012;223.5568;0;-1.57E-6;0;Intelsat
1.0027022;0.000262;0.0167;238.0505;337.4337;104.0782;0;-1.59E-6;0;Intelsat
1.00276414;0.0002597;0.0165;239.3173;340.9456;1.9315;0;-1.62E-6;0;Intelsat
1.0026776;0.0002784;0.0194;244.5059;328.4642;11.3677;0;-1.68E-6;0;Intelsat
1.00277086;0.0002622;0.0212;244.8712;327.7474;115.3734;0;-1.7E-6;0;Intelsat
1.00274649;0.000269;0.0203;244.163;330.9822;216.4844;0;-1.7E-6;0;Intelsat
1.00271968;0.0002569;0.0206;244.2116;334.4963;291.4009;0;-1.7E-6;0;Intelsat
1.00272182;0.0002565;0.0204;244.631;332.3806;87.87;0;-1.71E-6;0;Intelsat
1.00270781;0.0002414;0.0205;245.1412;333.6878;37.0122;0;-1.72E-6;0;Intelsat
1.00270371;0.0002353;0.0172;240.8957;334.0148;225.1316;0;-1.72E-6;0;Intelsat
1.00270357;0.0002336;0.016;239.006;332.6825;101.5723;0;-1.71E-6;0;Intelsat
1.00272099;0.0002423;0.0154;238.4695;330.4604;91.6196;0;-1.71E-6;0;Intelsat
1.00273182;0.0002339;0.0165;242.6029;326.0277;122.392;0;-1.69E-6;0;Intelsat
1.00271469;0.0002294;0.018;245.1077;322.6459;349.77;0;-1.68E-6;0;Intelsat
1.00274981;0.0002258;0.019;246.3015;319.9308;115.4602;0;-1.69E-6;0;Intelsat
1.00272905;0.0002366;0.0183;246.6976;320.8985;217.7006;0;-1.68E-6;0;Intelsat
1.00271094;0.0002335;0.0199;248.0773;319.7991;318.0646;0;-1.67E-6;0;Intelsat
1.00272294;0.0002448;0.0195;247.6499;320.5918;85.8347;0;-1.67E-6;0;Intelsat
1.00271186;0.0002313;0.0192;249.3211;319.3653;121.9768;0;-1.66E-6;0;Intelsat
1.00271186;0.0002313;0.0192;249.3211;319.3653;121.9768;0;-1.66E-6;0;Intelsat
1.00271159;0.0002318;0.0186;249.1082;319.3729;209.9689;0;-1.66E-6;0;Intelsat
1.00271139;0.0002355;0.0174;247.8196;317.8327;78.1832;0;-1.65E-6;0;Intelsat
1.00271138;0.0002363;0.0166;247.0013;318.2699;207.6431;0;-1.65E-6;0;Intelsat
1.00271146;0.0002365;0.0165;246.7079;318.5509;228.4943;0;-1.65E-6;0;Intelsat
1.00271143;0.0002397;0.0154;245.3153;318.56;88.8367;0;-1.64E-6;0;Intelsat
1.00271158;0.0002394;0.0154;245.2441;318.8538;110.1081;0;-1.64E-6;0;Intelsat
1.00271195;0.0002433;0.0142;243.8747;318.2094;338.1164;0;-1.64E-6;0;Intelsat
1.00271198;0.0002447;0.0136;242.0302;319.3227;108.4324;0;-1.63E-6;0;Intelsat
1.00272596;0.0002268;0.0155;244.2115;320.9982;311.8853;0;-1.63E-6;0;Intelsat
1.00272754;0.0002292;0.0164;245.9167;319.8096;236.4425;0;-1.61E-6;0;Intelsat
1.00271601;0.0002485;0.0165;247.6391;318.7053;96.7484;0;-1.6E-6;0;Intelsat
1.0027407;0.0002412;0.0182;248.4321;323.5026;354.1044;0;-1.59E-6;0;Intelsat
1.00270858;0.0002526;0.0181;250.3407;318.0387;72.0038;0;-1.58E-6;0;Intelsat
1.00272187;0.0002363;0.0182;248.6429;323.752;252.5912;0;-1.57E-6;0;Intelsat
1.002685;0.0002366;0.0191;252.3323;321.0033;237.1758;0;-1.53E-6;0;Intelsat
1.00271046;0.0002529;0.0188;251.8717;318.8752;265.6831;0;-1.54E-6;0;Intelsat
1.00271139;0.0002572;0.0169;250.7622;320.5926;241.9582;0;-1.51E-6;0;Intelsat
1.0027111;0.0002577;0.0166;250.6099;320.6709;318.8462;0;-1.51E-6;0;Intelsat
1.00271093;0.0002582;0.0158;249.8032;322.8234;113.9379;0;-1.5E-6;0;Intelsat
1.00271079;0.0002548;0.015;249.2231;324.0448;242.8533;0;-1.49E-6;0;Intelsat
1.00271337;0.0002561;0.0147;248.908;322.5781;321.1292;0;-1.49E-6;0;Intelsat
1.00271296;0.0002569;0.014;247.9078;324.2875;91.2608;0;-1.48E-6;0;Intelsat
1.00272635;0.0002442;0.0153;248.5237;324.3843;220.114;0;-1.47E-6;0;Intelsat
1.0027232;0.000246;0.0159;250.4251;324.3824;312.7805;0;-1.47E-6;0;Intelsat
1.00272539;0.0002486;0.0155;251.0083;324.0479;77.2241;0;-1.46E-6;0;Intelsat
1.00268555;0.000222;0.0169;252.3913;329.7848;190.0807;0;-1.46E-6;0;Intelsat
1.00275513;0.0002312;0.0174;254.5405;326.1425;321.6934;0;-1.47E-6;0;Intelsat
1.00272019;0.0002522;0.0168;253.8923;323.9993;39.3225;0;-1.46E-6;0;Intelsat
1.00274566;0.000232;0.0178;252.9557;323.3244;118.6981;0;-1.47E-6;0;Intelsat
1.002666;0.0002734;0.0185;254.915;8.1866;150.1339;0;-1.45E-6;0;Intelsat
1.00273226;0.0002524;0.0184;254.962;327.4932;311.3713;0;-1.47E-6;0;Intelsat
1.00272456;0.0002503;0.0197;257.5302;326.1252;321.4272;0;-1.48E-6;0;Intelsat
1.00271891;0.0002461;0.019;257.7272;324.545;118.3062;0;-1.48E-6;0;Intelsat
1.00270414;0.0002548;0.0177;257.6227;323.2947;330.9421;0;-1.5E-6;0;Intelsat
1.00270204;0.0002506;0.0152;255.6481;324.4662;22.3705;0;-1.53E-6;0;Intelsat
1.00270178;0.0002493;0.0149;255.0888;325.0565;100.0893;0;-1.53E-6;0;Intelsat
1.00272029;0.0002287;0.0121;255.4753;329.9128;204.1103;0;-1.61E-6;0;Intelsat
1.00271422;0.0002115;0.0169;256.0306;328.8382;207.4322;0;-1.64E-6;0;Intelsat
1.00271701;0.0002126;0.0168;255.7428;328.7612;233.6973;0;-1.63E-6;0;Intelsat
1.00269282;0.0001916;0.0178;257.2188;330.4309;207.4638;0;-1.64E-6;0;Intelsat
1.00270853;0.0002012;0.0176;256.7756;328.1791;261.9616;0;-1.65E-6;0;Intelsat
1.00271971;0.0002098;0.0175;257.759;325.0871;101.5656;0;-1.65E-6;0;Intelsat
1.0026763;0.000205;0.0166;257.3269;317.1773;301.1341;0;-1.65E-6;0;Intelsat
1.00270725;0.0002165;0.0157;257.3423;320.9234;87.6822;0;-1.65E-6;0;Intelsat
1.00270569;0.000215;0.015;256.9731;319.8504;210.2813;0;-1.64E-6;0;Intelsat
1.00270677;0.0002144;0.0135;255.6307;318.6534;125.5519;0;-1.64E-6;0;Intelsat
1.00270656;0.0002141;0.0132;257.079;316.0673;230.3549;0;-1.63E-6;0;Intelsat
1.00270424;0.000191;0.0139;257.4437;316.6769;214.9508;0;-1.62E-6;0;Intelsat
1.00271366;0.0002028;0.0139;258.8071;312.814;338.3123;0;-1.62E-6;0;Intelsat
1.00271085;0.0002084;0.0144;261.4044;309.7813;85.2114;0;-1.61E-6;0;Intelsat
1.00274019;0.0001998;0.0162;260.4171;309.3288;138.4889;0;-1.61E-6;0;Intelsat
1.00270998;0.0001895;0.0156;261.6754;311.0406;291.0189;0;-1.61E-6;0;Intelsat
1.00271059;0.0002085;0.0155;262.9885;307.9612;98.5337;0;-1.6E-6;0;Intelsat
1.00277191;0.0001968;0.0171;262.618;301.8347;233.1021;0;-1.61E-6;0;Intelsat
1.0027087;0.0001881;0.0169;262.2659;311.8536;240.5808;0;-1.6E-6;0;Intelsat
1.00272445;0.0002022;0.0174;263.8101;310.1862;331.8471;0;-1.6E-6;0;Intelsat
1.00272037;0.0002037;0.0164;263.6579;308.3608;141.8265;0;-1.59E-6;0;Intelsat
1.00271033;0.0002159;0.0146;263.0626;306.2312;113.2704;0;-1.59E-6;0;Intelsat
1.0027102;0.0002184;0.014;263.0928;305.708;251.4944;0;-1.58E-6;0;Intelsat
1.0027102;0.0002231;0.0126;262.1362;305.706;151.5831;0;-1.58E-6;0;Intelsat
